{
  "type": "FeatureCollection",
  "features": [
    {
      "type": "Feature",
      "properties": {
        "norad_id": 66575,
        "name": "STARLINK-35810",
        "group": "last-30-days",
        "lat": 31.029597233775128,
        "lon": 174.3562922357119,
        "alt_km": 462.59488907324067,
        "timestamp": "2025-12-27T13:34:48.004793+00:00",
        "meta_object_name": "STARLINK-35810",
        "meta_object_id": "2025-268U",
        "meta_epoch": "2025-12-27T08:00:01.999872",
        "meta_mean_motion": 15.33999953,
        "meta_eccentricity": 9.924e-05,
        "meta_inclination": 43.0003,
        "meta_ra_of_asc_node": 35.8883,
        "meta_arg_of_pericenter": 276.3791,
        "meta_mean_anomaly": 9.5363,
        "meta_ephemeris_type": 0,
        "meta_classification_type": "U",
        "meta_norad_cat_id": 66575,
        "meta_element_set_no": 999,
        "meta_rev_at_epoch": 608,
        "meta_bstar": -0.066700917,
        "meta_mean_motion_dot": -0.02026196,
        "meta_mean_motion_ddot": 0,
        "tle_line1": "1 66575U 25268U   25361.33335648 -.02026196  00000+0 -66701-1 0  9992",
        "tle_line2": "2 66575  43.0003  35.8883 0000992 276.3791   9.5363 15.33999953  6087"
      },
      "geometry": {
        "type": "Point",
        "coordinates": [
          174.3562922357119,
          31.029597233775128
        ]
      }
    },
    {
      "type": "Feature",
      "properties": {
        "norad_id": 66576,
        "name": "STARLINK-35814",
        "group": "last-30-days",
        "lat": 21.033151105768532,
        "lon": -169.85103272112033,
        "alt_km": 461.49062015004347,
        "timestamp": "2025-12-27T13:34:48.004803+00:00",
        "meta_object_name": "STARLINK-35814",
        "meta_object_id": "2025-268V",
        "meta_epoch": "2025-12-27T08:00:01.999872",
        "meta_mean_motion": 15.34837201,
        "meta_eccentricity": 0.00010333,
        "meta_inclination": 42.9995,
        "meta_ra_of_asc_node": 35.8477,
        "meta_arg_of_pericenter": 260.5248,
        "meta_mean_anomaly": 42.0305,
        "meta_ephemeris_type": 0,
        "meta_classification_type": "U",
        "meta_norad_cat_id": 66576,
        "meta_element_set_no": 999,
        "meta_rev_at_epoch": 607,
        "meta_bstar": -0.065096729,
        "meta_mean_motion_dot": -0.02030863,
        "meta_mean_motion_ddot": 0,
        "tle_line1": "1 66576U 25268V   25361.33335648 -.02030863  00000+0 -65097-1 0  9996",
        "tle_line2": "2 66576  42.9995  35.8477 0001033 260.5248  42.0305 15.34837201  6079"
      },
      "geometry": {
        "type": "Point",
        "coordinates": [
          -169.85103272112033,
          21.033151105768532
        ]
      }
    },
    {
      "type": "Feature",
      "properties": {
        "norad_id": 66577,
        "name": "STARLINK-35815",
        "group": "last-30-days",
        "lat": 3.0154239081741268,
        "lon": -148.78709106242405,
        "alt_km": 459.76152817296224,
        "timestamp": "2025-12-27T13:34:48.004814+00:00",
        "meta_object_name": "STARLINK-35815",
        "meta_object_id": "2025-268W",
        "meta_epoch": "2025-12-27T06:00:02.000160",
        "meta_mean_motion": 15.36657779,
        "meta_eccentricity": 9.766e-05,
        "meta_inclination": 43.0009,
        "meta_ra_of_asc_node": 36.2607,
        "meta_arg_of_pericenter": 287.2312,
        "meta_mean_anomaly": 299.9339,
        "meta_ephemeris_type": 0,
        "meta_classification_type": "U",
        "meta_norad_cat_id": 66577,
        "meta_element_set_no": 999,
        "meta_rev_at_epoch": 607,
        "meta_bstar": -0.06040501,
        "meta_mean_motion_dot": -0.0196946,
        "meta_mean_motion_ddot": 0,
        "tle_line1": "1 66577U 25268W   25361.25002315 -.01969460  00000+0 -60405-1 0  9991",
        "tle_line2": "2 66577  43.0009  36.2607 0000976 287.2312 299.9339 15.36657779  6073"
      },
      "geometry": {
        "type": "Point",
        "coordinates": [
          -148.78709106242405,
          3.0154239081741268
        ]
      }
    },
    {
      "type": "Feature",
      "properties": {
        "norad_id": 66578,
        "name": "STARLINK-35743",
        "group": "last-30-days",
        "lat": -7.731912707090411,
        "lon": -137.20772860586598,
        "alt_km": 458.5771685812406,
        "timestamp": "2025-12-27T13:34:48.004824+00:00",
        "meta_object_name": "STARLINK-35743",
        "meta_object_id": "2025-268X",
        "meta_epoch": "2025-12-27T06:00:02.000160",
        "meta_mean_motion": 15.37514791,
        "meta_eccentricity": 7.016e-05,
        "meta_inclination": 43.0009,
        "meta_ra_of_asc_node": 36.2242,
        "meta_arg_of_pericenter": 300.7528,
        "meta_mean_anomaly": 301.2603,
        "meta_ephemeris_type": 0,
        "meta_classification_type": "U",
        "meta_norad_cat_id": 66578,
        "meta_element_set_no": 999,
        "meta_rev_at_epoch": 600,
        "meta_bstar": -0.060367055,
        "meta_mean_motion_dot": -0.02017952,
        "meta_mean_motion_ddot": 0,
        "tle_line1": "1 66578U 25268X   25361.25002315 -.02017952  00000+0 -60367-1 0  9990",
        "tle_line2": "2 66578  43.0009  36.2242 0000701 300.7528 301.2603 15.37514791  6006"
      },
      "geometry": {
        "type": "Point",
        "coordinates": [
          -137.20772860586598,
          -7.731912707090411
        ]
      }
    },
    {
      "type": "Feature",
      "properties": {
        "norad_id": 66579,
        "name": "STARLINK-35868",
        "group": "last-30-days",
        "lat": -17.786964860234296,
        "lon": -125.48567321549677,
        "alt_km": 456.8005211767131,
        "timestamp": "2025-12-27T13:34:48.004837+00:00",
        "meta_object_name": "STARLINK-35868",
        "meta_object_id": "2025-268Y",
        "meta_epoch": "2025-12-27T06:00:02.000160",
        "meta_mean_motion": 15.38364284,
        "meta_eccentricity": 7.723e-05,
        "meta_inclination": 43.0007,
        "meta_ra_of_asc_node": 36.1892,
        "meta_arg_of_pericenter": 281.2456,
        "meta_mean_anomaly": 335.057,
        "meta_ephemeris_type": 0,
        "meta_classification_type": "U",
        "meta_norad_cat_id": 66579,
        "meta_element_set_no": 999,
        "meta_rev_at_epoch": 606,
        "meta_bstar": -0.059661373,
        "meta_mean_motion_dot": -0.02047204,
        "meta_mean_motion_ddot": 0,
        "tle_line1": "1 66579U 25268Y   25361.25002315 -.02047204  00000+0 -59661-1 0  9999",
        "tle_line2": "2 66579  43.0007  36.1892 0000772 281.2456 335.0570 15.38364284  6061"
      },
      "geometry": {
        "type": "Point",
        "coordinates": [
          -125.48567321549677,
          -17.786964860234296
        ]
      }
    },
    {
      "type": "Feature",
      "properties": {
        "norad_id": 66580,
        "name": "STARLINK-35872",
        "group": "last-30-days",
        "lat": -26.773608951109225,
        "lon": -112.87603623012913,
        "alt_km": 454.859896593779,
        "timestamp": "2025-12-27T13:34:48.004850+00:00",
        "meta_object_name": "STARLINK-35872",
        "meta_object_id": "2025-268Z",
        "meta_epoch": "2025-12-27T06:00:02.000160",
        "meta_mean_motion": 15.39228631,
        "meta_eccentricity": 9.169e-05,
        "meta_inclination": 43.0003,
        "meta_ra_of_asc_node": 36.1557,
        "meta_arg_of_pericenter": 261.5407,
        "meta_mean_anomaly": 8.57,
        "meta_ephemeris_type": 0,
        "meta_classification_type": "U",
        "meta_norad_cat_id": 66580,
        "meta_element_set_no": 999,
        "meta_rev_at_epoch": 607,
        "meta_bstar": -0.061404173,
        "meta_mean_motion_dot": -0.02192736,
        "meta_mean_motion_ddot": 0,
        "tle_line1": "1 66580U 25268Z   25361.25002315 -.02192736  00000+0 -61404-1 0  9990",
        "tle_line2": "2 66580  43.0003  36.1557 0000916 261.5407   8.5700 15.39228631  6078"
      },
      "geometry": {
        "type": "Point",
        "coordinates": [
          -112.87603623012913,
          -26.773608951109225
        ]
      }
    },
    {
      "type": "Feature",
      "properties": {
        "norad_id": 66581,
        "name": "STARLINK-35744",
        "group": "last-30-days",
        "lat": -34.14233863568,
        "lon": -98.99804001683783,
        "alt_km": 452.65441840004587,
        "timestamp": "2025-12-27T13:34:48.004861+00:00",
        "meta_object_name": "STARLINK-35744",
        "meta_object_id": "2025-268AA",
        "meta_epoch": "2025-12-27T06:00:02.000160",
        "meta_mean_motion": 15.40023259,
        "meta_eccentricity": 8.292e-05,
        "meta_inclination": 43,
        "meta_ra_of_asc_node": 36.1229,
        "meta_arg_of_pericenter": 272.1833,
        "meta_mean_anomaly": 11.0243,
        "meta_ephemeris_type": 0,
        "meta_classification_type": "U",
        "meta_norad_cat_id": 66581,
        "meta_element_set_no": 999,
        "meta_rev_at_epoch": 607,
        "meta_bstar": -0.055121782,
        "meta_mean_motion_dot": -0.02003853,
        "meta_mean_motion_ddot": 0,
        "tle_line1": "1 66581U 25268AA  25361.25002315 -.02003853  00000+0 -55122-1 0  9992",
        "tle_line2": "2 66581  43.0000  36.1229 0000829 272.1833  11.0243 15.40023259  6078"
      },
      "geometry": {
        "type": "Point",
        "coordinates": [
          -98.99804001683783,
          -34.14233863568
        ]
      }
    }
  ]
}